DIAMOND RED             
1 42783U 17036U   22154.56239369  .00005212  00000+0  19742-3 0  9993
2 42783  97.1997 195.8387 0010999  29.7334 330.4529 15.27275357274828
PEGASUS                 
1 42784U 17036V   22155.08916485  .00006289  00000+0  22807-3 0  9994
2 42784  97.1991 197.4556 0010390  25.7897 334.3859 15.28635752274979
DIAMOND GREEN           
1 42785U 17036W   22154.36428140  .00004654  00000+0  17643-3 0  9997
2 42785  97.2001 195.7118 0010951  31.5332 328.6562 15.27301330274866
DIAMOND BLUE            
1 42786U 17036X   22154.36303848  .00005208  00000+0  19719-3 0  9997
2 42786  97.1999 195.7032 0010908  32.0193 328.1707 15.27286192274864
NUDTSAT                 
1 42787U 17036Y   22154.92129562  .00015294  00000+0  47766-3 0  9998
2 42787  97.2029 201.2859 0008030  16.6923 343.4529 15.33241416275020
SUCHAI                  
1 42788U 17036Z   22154.57724322  .00008070  00000+0  27710-3 0  9996
2 42788  97.2005 198.5537 0009442  23.6665 336.5008 15.30342159275067
SKCUBE                  
1 42789U 17036AA  22154.37102067  .00007266  00000+0  25532-3 0  9997
2 42789  97.1996 197.8372 0009627  25.4016 334.7697 15.29625544274928
VZLUSAT-1               
1 42790U 17036AB  22154.07914660  .00012128  00000+0  38130-3 0  9997
2 42790  97.2025 200.4370 0007984  20.3471 339.8089 15.33083919275040
ROBUSTA-1B              
1 42792U 17036AD  22155.11601608  .00007618  00000+0  26354-3 0  9993
2 42792  97.1996 199.1109 0009082  23.3263 336.8388 15.30124327275084
CICERO 6                
1 42793U 17036AE  22155.10591685  .00004612  00000+0  17543-3 0  9997
2 42793  97.1979 196.9202 0009438  29.3849 330.7919 15.27208130275035
CORVUS BC2              
1 42846U 17042X   22154.54137596  .00000974  00000+0  99046-4 0  9993
2 42846  97.4245  12.6377 0010655  50.0738 310.1416 14.92865559266209
CORVUS BC1              
1 42847U 17042Y   22155.15912022  .00000968  00000+0  98181-4 0  9999
2 42847  97.4246  13.5240 0010252  47.4837 312.7248 14.92972653266309
MIRATA                  
1 43015U 17073C   22154.66561768  .00003093  00000+0  22999-3 0  9998
2 43015  97.6753  50.4870 0238056 226.2094 131.9212 14.83843877245222
MAKERSAT 0              
1 43016U 17073D   22155.15385479  .00001690  00000+0  13070-3 0  9998
2 43016  97.6772  50.5676 0244698 228.7939 129.1950 14.82220887245219
AEROCUBE 7B (OCSD B)    
1 43042U 17071F   22154.40877694  .00104598  00000+0  62267-3 0  9990
2 43042  51.6319 115.4514 0005995  84.2596 275.9088 15.77121202253471
AEROCUBE 7C (OCSD C)    
1 43043U 17071G   22154.29940506  .00091767  00000+0  59906-3 0  9990
2 43043  51.6300 117.6895 0005494  82.0354 278.1269 15.75078838253403
ASGARDIA 1              
1 43049U 17071N   22155.14612983  .00064046  00000+0  50127-3 0  9992
2 43049  51.6311 115.2965 0004672  72.5337 287.6171 15.70975136253505
PROPCUBE 2 (FAUNA)      
1 43052U 17071R   22154.31562353  .00111503  00000+0  62715-3 0  9996
2 43052  51.6256 110.4070 0005171  81.6401 278.5186 15.78372601253498
CORVUS BC3              
1 43118U 18004H   22154.80662098  .00004548  00000+0  17320-3 0  9999
2 43118  97.3623 227.6899 0010312  58.4867 301.7378 15.27186410244135
MICROMAS-2A             
1 43131U 18004W   22154.21566944  .00014684  00000+0  42429-3 0  9992
2 43131  97.3755 233.4658 0006425  52.3132 307.8693 15.35730569244396
SPACEBEE-4              
1 43139U 18004AE  22155.20866855  .00026635  00000+0  59726-3 0  9991
2 43139  97.3847 239.1848 0003656  45.3243 314.8302 15.43382289244798
SPACEBEE-3              
1 43140U 18004AF  22155.17196137  .00049368  00000+0  80492-3 0  9990
2 43140  97.3888 242.6789 0000340  26.3807 333.7463 15.52464487245004
SPACEBEE-2              
1 43141U 18004AG  22155.19691168  .00067118  00000+0  93229-3 0  9992
2 43141  97.3910 244.1110 0001369 259.0325 101.0776 15.56794597245081
SPACEBEE-1              
1 43142U 18004AH  22155.03593132  .00110018  00000+0  11849-2 0  9993
2 43142  97.3903 245.5238 0004223 250.6566 109.4236 15.63336117245144
CICERO 7                
1 43143U 18004AJ  22155.15063753  .00009364  00000+0  29358-3 0  9994
2 43143  97.3732 233.9957 0006310  60.2641 299.9229 15.33261795244537
GOMX-4B                 
1 43196U 18015E   22154.85136114  .00003907  00000+0  14996-3 0  9991
2 43196  97.5324 294.1090 0018676 104.8945 255.4363 15.26926688241085
GOMX-4A                 
1 43197U 18015F   22155.04714407  .00005894  00000+0  21343-3 0  9992
2 43197  97.5310 295.0684 0018263 104.6889   6.8343 15.28634137241170
AEROCUBE 12A            
1 43556U 18046C   22154.73658713  .00011601  00000+0  30683-3 0  9997
2 43556  51.6365 250.7082 0007877 344.6252  15.4491 15.38828663217206
AEROCUBE 12B            
1 43557U 18046D   22154.65693810  .00007360  00000+0  21032-3 0  9991
2 43557  51.6382 255.3601 0007781 343.0512  17.0210 15.37023625217087
SURFSAT                 
1 43614U 18070B   22154.86947857  .00024959  00000+0  38011-3 0  9996
2 43614  93.0318  92.9839 0014881  78.9847 281.3088 15.54297137208957
CP7 (DAVE)              
1 43615U 18070C   22154.54595513  .00023057  00000+0  36593-3 0  9991
2 43615  93.0310  92.7120 0015214  80.4114 279.8866 15.53159112208873
ELFIN-B                 
1 43616U 18070D   22155.09405436  .00055362  00000+0  55350-3 0  9993
2 43616  93.0213  94.0362 0013437  78.2070 282.0705 15.65303060209268
ELFIN-A                 
1 43617U 18070E   22154.73282226  .00063563  00000+0  58678-3 0  9992
2 43617  93.0276  95.1974 0012484  77.9656 282.3012 15.67287611209254
CUBEBEL-1 (BSUSAT-1)    
1 43666U 18083E   22155.05689456  .00007551  00000+0  32287-3 0  9995
2 43666  97.4199 183.8941 0013604  28.9169  56.6698 15.23042258199448
CICERO 10               
1 43690U 18088A   22154.78220052  .00004192  00000+0  16777-3 0  9993
2 43690  85.0353 325.4132 0013140 189.6478 170.4515 15.24673336197673
IRVINE01                
1 43693U 18088D   22154.40565993  .00022833  00000+0  62919-3 0  9992
2 43693  85.0285 320.3656 0013501 159.1905 200.9898 15.36907425198062
PROXIMA I               
1 43694U 18088E   22154.42852805  .00005191  00000+0  19804-3 0  9999
2 43694  85.0286 322.3741 0017972 159.8438 200.3520 15.26250213197830
PROXIMA II              
1 43696U 18088G   22154.95302146  .00005305  00000+0  20249-3 0  9999
2 43696  85.0289 322.0424 0018075 158.0195 202.1828 15.26236121197907
FACSAT-1                
1 43721U 18096C   22155.08716306  .00015515  00000+0  44515-3 0  9995
2 43721  97.3509 234.9226 0015400 103.8989 343.2723 15.35839349195928
CENTAURI-2              
1 43722U 18096D   22154.64218958  .00016072  00000+0  41762-3 0  9997
2 43722  97.3552 236.3748 0013869 102.6065 257.6732 15.38929516195951
INNOSAT-2               
1 43738U 18096V   22155.10851593  .00035302  00000+0  66918-3 0  9991
2 43738  97.3657 243.6773 0014536  95.0867 349.5814 15.48142651196445
SIRION PATHFINDER-2     
1 43759U 18099B   22155.13248220  .00001541  00000+0  14113-3 0  9995
2 43759  97.6210 222.2490 0012513 309.7243  50.2875 14.96321441191054
CORVUS BC4              
1 43767U 18099K   22155.14826528  .00000900  00000+0  85793-4 0  9999
2 43767  97.6168 220.7916 0010332 317.8453  42.1973 14.95719149190986
MOVE-II                 
1 43780U 18099Y   22154.65288961  .00002519  00000+0  22008-3 0  9999
2 43780  97.6236 222.4489 0011612 320.0755  39.9613 14.97620181190999
SPACEBEE-7              
1 43816U 18099BL  22155.17343819  .00001504  00000+0  13368-3 0  9993
2 43816  97.6256 223.6845 0011848 301.1274  58.8786 14.97550782190661
SPACEBEE-5              
1 43817U 18099BM  22154.66690359  .00005188  00000+0  41139-3 0  9990
2 43817  97.6371 225.9515 0008503 323.2332  36.8308 15.00939965190703
SPACEBEE-6              
1 43818U 18099BN  22154.67141375  .00003384  00000+0  28727-3 0  9995
2 43818  97.6300 224.0292 0010413 301.1964  58.8237 14.98529171190779
SHIELDS 1               
1 43850U 18104B   22155.17197245  .00002197  00000+0  90261-4 0  9995
2 43850  85.0298  61.0311 0012470 323.0383  36.9999 15.23501464192482
STF-1                   
1 43852U 18104D   22154.70116953  .00005983  00000+0  22752-3 0  9997
2 43852  85.0322  61.6990 0011755 341.5002  18.5813 15.26487594192446
ZACUBE-2                
1 43907U 18111AH  22155.09288350  .00006549  00000+0  24406-3 0  9997
2 43907  97.1921  41.8656 0021765 124.2249   9.7224 15.27548675191251
LUME 1                  
1 43908U 18111AJ  22154.64757715  .00005858  00000+0  20207-3 0  9991
2 43908  97.1927  42.8909 0020520 120.3659 239.9614 15.30148947191285
AOBA VELOX-IV           
1 43940U 19003J   22155.07570128  .00016822  00000+0  46853-3 0  9995
2 43940  97.1269 191.3269 0018687 186.7233 173.3764 15.36685104188071
MOVE-IIB                
1 44398U 19038N   22154.91445126  .00007686  00000+0  37561-3 0  9996
2 44398  97.6375 124.1347 0022792 169.5271 190.6442 15.18302916160988
SONATE                  
1 44400U 19038Q   22154.91307896  .00003122  00000+0  17202-3 0  9992
2 44400  97.6418 123.3558 0024026 175.4717 184.6737 15.14529674160885
LUCKY-7                 
1 44406U 19038W   22154.85350519  .00003321  00000+0  17837-3 0  9996
2 44406  97.6380 123.7848 0023066 172.8787 187.2778 15.15408431160901
BEESAT 9                
1 44412U 19038AC  22154.39894469  .00004775  00000+0  24631-3 0  9993
2 44412  97.6351 123.5862 0020525 177.2449 182.8901 15.16662206160565
JAISAT-1                
1 44419U 19038F   22155.18054810  .00004268  00000+0  21761-3 0  9994
2 44419  97.6355 125.2002 0019697 171.4100 188.7474 15.17145319161045
DUCHIFAT-3              
1 44854U 19089C   22155.13592761  .00002606  00000+0  20627-3 0  9994
2 44854  36.9663 179.2918 0007091 112.5997 247.5447 15.01008965135937
EYESAT-NANO             
1 44877U 19092E   22154.44754601  .00006216  00000+0  27260-3 0  9990
2 44877  97.4640 338.9164 0012334  51.6014 308.6328 15.22269373136231
